ONEWEB-0602             
1 54666U 22166AA  22347.91667824  .00052702  00000+0  51575-2 0  9995
2 54666  86.5181 156.1457 0010975 222.0703  12.0888 14.92022226  1306
ONEWEB-0603             
1 54667U 22166AB  22347.91667824  .00053610  00000+0  54125-2 0  9999
2 54667  86.5158 156.1504 0006277 228.7145 343.7030 14.90798707  1302
ONEWEB-0604             
1 54668U 22166AC  22348.25001157  .00018509  00000+0  18698-2 0  9992
2 54668  86.5194 156.0070 0006575 221.8238 340.7628 14.90934056  1532
ONEWEB-0605             
1 54669U 22166AD  22347.91667824  .00053195  00000+0  53747-2 0  9998
2 54669  86.5171 156.1513 0006222 229.7749 342.1638 14.90770577  1302
ONEWEB-0606             
1 54670U 22166AE  22347.91667824  .00053752  00000+0  53947-2 0  9991
2 54670  86.5191 156.1519 0006779 220.9326 355.6168 14.91033903  1306
ONEWEB-0607             
1 54671U 22166AF  22347.91667824  .00054130  00000+0  54400-2 0  9998
2 54671  86.5150 156.1487 0006652 222.6671 352.9141 14.90978217  1304
ONEWEB-0608             
1 54672U 22166AG  22347.91667824  .00052567  00000+0  51501-2 0  9990
2 54672  86.5164 156.1479 0010818 221.2570  12.0790 14.91978900  1307
ONEWEB-0610             
1 54673U 22166AH  22347.91667824  .00054360  00000+0  54504-2 0  9990
2 54673  86.5154 156.1492 0006864 219.6231 357.5650 14.91069258  1302
